[{"OBJECT_NAME":"STARLINK-30248","OBJECT_ID":"2023-119J","EPOCH":"2026-03-09T22:00:01.999584","MEAN_MOTION":15.18370424,"ECCENTRICITY":0.00011143,"INCLINATION":43.0002,"RA_OF_ASC_NODE":79.6115,"ARG_OF_PERICENTER":259.9971,"MEAN_ANOMALY":294.0956,"EPHEMERIS_TYPE":0,"CLASSIFICATION_TYPE":"U","NORAD_CAT_ID":57610,"ELEMENT_SET_NO":999,"REV_AT_EPOCH":578,"BSTAR":0.052691671,"MEAN_MOTION_DOT":0.01203938,"MEAN_MOTION_DDOT":0},{"OBJECT_NAME":"FENGYUN 1C DEB","OBJECT_ID":"1999-025DFV","EPOCH":"2026-03-08T16:36:39.334752","MEAN_MOTION":14.7561826,"ECCENTRICITY":0.02801674,"INCLINATION":99.0493,"RA_OF_ASC_NODE":138.4817,"ARG_OF_PERICENTER":72.5853,"MEAN_ANOMALY":290.5777,"EPHEMERIS_TYPE":0,"CLASSIFICATION_TYPE":"U","NORAD_CAT_ID":33684,"ELEMENT_SET_NO":999,"REV_AT_EPOCH":94255,"BSTAR":0.0012457497,"MEAN_MOTION_DOT":0.00016208,"MEAN_MOTION_DDOT":0}]
